[{"OBJECT_NAME":"STARLINK-3134","OBJECT_ID":"2021-104AC","EPOCH":"2026-03-09T16:17:31.063200","MEAN_MOTION":15.0883706,"ECCENTRICITY":9.023e-5,"INCLINATION":53.2157,"RA_OF_ASC_NODE":229.3302,"ARG_OF_PERICENTER":85.9598,"MEAN_ANOMALY":274.1497,"EPHEMERIS_TYPE":0,"CLASSIFICATION_TYPE":"U","NORAD_CAT_ID":49434,"ELEMENT_SET_NO":999,"REV_AT_EPOCH":23971,"BSTAR":-0.00016199479,"MEAN_MOTION_DOT":-2.865e-5,"MEAN_MOTION_DDOT":0},{"OBJECT_NAME":"PSLV R\/B","OBJECT_ID":"2010-035F","EPOCH":"2026-03-09T21:32:02.806944","MEAN_MOTION":15.11637156,"ECCENTRICITY":0.00120112,"INCLINATION":97.9796,"RA_OF_ASC_NODE":355.2302,"ARG_OF_PERICENTER":197.9598,"MEAN_ANOMALY":162.1208,"EPHEMERIS_TYPE":0,"CLASSIFICATION_TYPE":"U","NORAD_CAT_ID":36800,"ELEMENT_SET_NO":999,"REV_AT_EPOCH":85407,"BSTAR":0.00037264097,"MEAN_MOTION_DOT":6.275e-5,"MEAN_MOTION_DDOT":0}]
